NAVSTAR 77 (USA 289)    
1 43873U 18109A   24153.37395097  .00000063  00000+0  00000+0 0  9999
2 43873  55.2918 121.6528 0028960 195.7474 336.1226  2.00555105 40116
